0 FENGYUN 1C DEB
1 37902U 99025ENB 13275.54286515  .00001105  00000-0  14565-2 0   799
2 37902 098.6999 305.5374 0357846 111.0941 252.9186 13.39245550179119
0 FENGYUN 1C DEB
1 37902U 99025ENB 13278.53119895  .00001130  00000-0  14927-2 0   809
2 37902 098.6952 308.1055 0356335 104.8995 259.3336 13.39253257179519
0 FENGYUN 1C DEB
1 37902U 99025ENB 13283.53657394  .00001284  00000-0  16888-2 0   815
2 37902 098.6957 312.4073 0356879 092.3286 271.9655 13.39269624180183
0 FENGYUN 1C DEB
1 37902U 99025ENB 13285.03068399  .00001310  00000-0  17284-2 0   825
2 37902 098.6961 313.6935 0355044 087.7393 276.4751 13.39274970180387
0 FENGYUN 1C DEB
1 37902U 99025ENB 13288.91536543  .00001444  00000-0  18990-2 0   830
2 37902 098.6936 317.0282 0355443 078.2845 285.8314 13.39288380180909
